[{"OBJECT_NAME":"STARLINK-33590","OBJECT_ID":"2025-123AB","EPOCH":"2026-03-09T17:12:40.552992","MEAN_MOTION":14.9832798,"ECCENTRICITY":0.00034921,"INCLINATION":70.0034,"RA_OF_ASC_NODE":194.3359,"ARG_OF_PERICENTER":277.6147,"MEAN_ANOMALY":82.4615,"EPHEMERIS_TYPE":0,"CLASSIFICATION_TYPE":"U","NORAD_CAT_ID":64316,"ELEMENT_SET_NO":999,"REV_AT_EPOCH":4162,"BSTAR":0.0003774133,"MEAN_MOTION_DOT":4.413e-5,"MEAN_MOTION_DDOT":0},{"OBJECT_NAME":"CZ-4B DEB","OBJECT_ID":"2006-015D","EPOCH":"2026-03-08T23:49:50.125728","MEAN_MOTION":14.74549733,"ECCENTRICITY":0.01202299,"INCLINATION":97.7844,"RA_OF_ASC_NODE":81.2278,"ARG_OF_PERICENTER":82.9024,"MEAN_ANOMALY":278.5839,"EPHEMERIS_TYPE":0,"CLASSIFICATION_TYPE":"U","NORAD_CAT_ID":29537,"ELEMENT_SET_NO":999,"REV_AT_EPOCH":4708,"BSTAR":0.0014359335,"MEAN_MOTION_DOT":0.00010702,"MEAN_MOTION_DDOT":0}]
